start=new Date('2023-04-11T00:00:00.000Z').valueOf();
sats=[{"ARG_OF_PERICENTER":"108.1589","ECCENTRICITY":"0.00016640","TLE_LINE1":"1 47599U 21009BD  23100.68900494  .00001768  00000-0  13755-3 0  9998","COUNTRY_CODE":"US","PERIOD":"95.592","INCLINATION":"53.0552","FILE":"3885363","OBJECT_TYPE":"PAYLOAD","SITE":"AFETR","SEMIMAJOR_AXIS":"6925.341","RCS_SIZE":"LARGE","GP_ID":"229878508","NORAD_CAT_ID":"47599","REF_FRAME":"TEME","EPHEMERIS_TYPE":"0","RA_OF_ASC_NODE":"98.1016","LAUNCH_DATE":"2021-02-04","TLE_LINE2":"2 47599  53.0552  98.1016 0001664 108.1589 251.9581 15.06402382120702","MEAN_MOTION_DDOT":"0.0000000000000","CENTER_NAME":"EARTH","TIME_SYSTEM":"UTC","MEAN_ELEMENT_THEORY":"SGP4","BSTAR":"0.00013755000000","APOAPSIS":"548.359","MEAN_ANOMALY":"251.9581","PERIAPSIS":"546.054","EPOCH":"2023-04-10T16:32:10.026816","CLASSIFICATION_TYPE":"U","ELEMENT_SET_NO":"999","MEAN_MOTION":"15.06402382","OBJECT_ID":"2021-009BD","DECAY_DATE":null,"REV_AT_EPOCH":"12070","OBJECT_NAME":"STARLINK-2004","MEAN_MOTION_DOT":"0.00001768"},{"TLE_LINE2":"2 47600  53.0548  97.9603 0001523  93.6400 266.4764 15.06407056120711","TIME_SYSTEM":"UTC","MEAN_MOTION_DDOT":"0.0000000000000","CENTER_NAME":"EARTH","MEAN_ELEMENT_THEORY":"SGP4","PERIAPSIS":"546.137","MEAN_ANOMALY":"266.4764","BSTAR":"0.00026118000000","APOAPSIS":"548.247","EPOCH":"2023-04-10T17:09:19.218528","CLASSIFICATION_TYPE":"U","ELEMENT_SET_NO":"999","MEAN_MOTION":"15.06407056","REV_AT_EPOCH":"12071","OBJECT_NAME":"STARLINK-2005","OBJECT_ID":"2021-009BE","DECAY_DATE":null,"MEAN_MOTION_DOT":"0.00003612","COUNTRY_CODE":"US","ARG_OF_PERICENTER":"93.6400","TLE_LINE1":"1 47600U 21009BE  23100.71480577  .00003612  00000-0  26118-3 0  9997","ECCENTRICITY":"0.00015230","INCLINATION":"53.0548","PERIOD":"95.592","FILE":"3885363","GP_ID":"229877267","SITE":"AFETR","OBJECT_TYPE":"PAYLOAD","SEMIMAJOR_AXIS":"6925.327","RCS_SIZE":"LARGE","REF_FRAME":"TEME","NORAD_CAT_ID":"47600","EPHEMERIS_TYPE":"0","RA_OF_ASC_NODE":"97.9603","LAUNCH_DATE":"2021-02-04"},{"PERIOD":"95.592","INCLINATION":"53.0549","TLE_LINE1":"1 47601U 21009BF  23100.69267986  .00004402  00000-0  31428-3 0  9990","ECCENTRICITY":"0.00014070","ARG_OF_PERICENTER":"116.2855","COUNTRY_CODE":"US","FILE":"3885363","NORAD_CAT_ID":"47601","REF_FRAME":"TEME","SEMIMAJOR_AXIS":"6925.356","RCS_SIZE":"LARGE","OBJECT_TYPE":"PAYLOAD","SITE":"AFETR","GP_ID":"229877514","LAUNCH_DATE":"2021-02-04","EPHEMERIS_TYPE":"0","RA_OF_ASC_NODE":"98.0827","TIME_SYSTEM":"UTC","MEAN_MOTION_DDOT":"0.0000000000000","CENTER_NAME":"EARTH","TLE_LINE2":"2 47601  53.0549  98.0827 0001407 116.2855 243.8279 15.06397581120700","APOAPSIS":"548.195","BSTAR":"0.00031428000000","PERIAPSIS":"546.247","MEAN_ANOMALY":"243.8279","MEAN_ELEMENT_THEORY":"SGP4","MEAN_MOTION":"15.06397581","ELEMENT_SET_NO":"999","CLASSIFICATION_TYPE":"U","EPOCH":"2023-04-10T16:37:27.539904","MEAN_MOTION_DOT":"0.00004402","OBJECT_ID":"2021-009BF","DECAY_DATE":null,"OBJECT_NAME":"STARLINK-2006","REV_AT_EPOCH":"12070"},{"TLE_LINE2":"2 47602  53.0538 107.9895 0001502 101.8201 258.2957 15.06401599120567","MEAN_MOTION_DDOT":"0.0000000000000","TIME_SYSTEM":"UTC","CENTER_NAME":"EARTH","MEAN_ELEMENT_THEORY":"SGP4","APOAPSIS":"548.249","BSTAR":"0.00017567000000","MEAN_ANOMALY":"258.2957","PERIAPSIS":"546.168","EPOCH":"2023-04-10T17:07:59.518848","CLASSIFICATION_TYPE":"U","MEAN_MOTION":"15.06401599","ELEMENT_SET_NO":"999","OBJECT_ID":"2021-009BG","DECAY_DATE":null,"OBJECT_NAME":"STARLINK-2007","REV_AT_EPOCH":"12056","MEAN_MOTION_DOT":"0.00002336","ECCENTRICITY":"0.00015020","TLE_LINE1":"1 47602U 21009BG  23100.71388332  .00002336  00000-0  17567-3 0  9995","ARG_OF_PERICENTER":"101.8201","COUNTRY_CODE":"US","PERIOD":"95.592","INCLINATION":"53.0538","FILE":"3885363","SEMIMAJOR_AXIS":"6925.344","RCS_SIZE":"LARGE","SITE":"AFETR","OBJECT_TYPE":"PAYLOAD","GP_ID":"229878269","NORAD_CAT_ID":"47602","REF_FRAME":"TEME","EPHEMERIS_TYPE":"0","RA_OF_ASC_NODE":"107.9895","LAUNCH_DATE":"2021-02-04"},{"CLASSIFICATION_TYPE":"U","EPOCH":"2023-04-10T19:00:46.941408","MEAN_MOTION":"15.06387174","ELEMENT_SET_NO":"999","OBJECT_ID":"2021-009BH","DECAY_DATE":null,"OBJECT_NAME":"STARLINK-2008","REV_AT_EPOCH":"12015","MEAN_MOTION_DOT":"0.00015465","TLE_LINE2":"2 47603  53.0526 137.6398 0001449  72.5855 287.5292 15.06387174120156","MEAN_MOTION_DDOT":"0.0000000000000","CENTER_NAME":"EARTH","TIME_SYSTEM":"UTC","MEAN_ELEMENT_THEORY":"SGP4","APOAPSIS":"548.256","BSTAR":"0.00105520000000","PERIAPSIS":"546.249","MEAN_ANOMALY":"287.5292","RCS_SIZE":"LARGE","SEMIMAJOR_AXIS":"6925.388","SITE":"AFETR","OBJECT_TYPE":"PAYLOAD","GP_ID":"229879008","NORAD_CAT_ID":"47603","REF_FRAME":"TEME","RA_OF_ASC_NODE":"137.6398","EPHEMERIS_TYPE":"0","LAUNCH_DATE":"2021-02-04","TLE_LINE1":"1 47603U 21009BH  23100.79220997  .00015465  00000-0  10552-2 0  9999","ECCENTRICITY":"0.00014490","ARG_OF_PERICENTER":"72.5855","COUNTRY_CODE":"US","PERIOD":"95.593","INCLINATION":"53.0526","FILE":"3885363"},{"EPHEMERIS_TYPE":"0","RA_OF_ASC_NODE":"107.9561","LAUNCH_DATE":"2021-02-04","GP_ID":"229877767","RCS_SIZE":"LARGE","SEMIMAJOR_AXIS":"6925.283","SITE":"AFETR","OBJECT_TYPE":"PAYLOAD","NORAD_CAT_ID":"47604","REF_FRAME":"TEME","FILE":"3885363","COUNTRY_CODE":"US","ECCENTRICITY":"0.00014230","TLE_LINE1":"1 47604U 21009BJ  23100.72126852  .00011179  00000-0  76775-3 0  9996","ARG_OF_PERICENTER":"86.0944","INCLINATION":"53.0530","PERIOD":"95.591","OBJECT_NAME":"STARLINK-2021","REV_AT_EPOCH":"12057","DECAY_DATE":null,"OBJECT_ID":"2021-009BJ","MEAN_MOTION_DOT":"0.00011179","EPOCH":"2023-04-10T17:18:37.600128","CLASSIFICATION_TYPE":"U","MEAN_MOTION":"15.06421349","ELEMENT_SET_NO":"999","MEAN_ELEMENT_THEORY":"SGP4","PERIAPSIS":"546.163","MEAN_ANOMALY":"274.0208","APOAPSIS":"548.134","BSTAR":"0.00076775000000","TLE_LINE2":"2 47604  53.0530 107.9561 0001423  86.0944 274.0208 15.06421349120572","TIME_SYSTEM":"UTC","MEAN_MOTION_DDOT":"0.0000000000000","CENTER_NAME":"EARTH"},{"NORAD_CAT_ID":"47606","REF_FRAME":"TEME","SITE":"AFETR","OBJECT_TYPE":"PAYLOAD","SEMIMAJOR_AXIS":"6925.333","RCS_SIZE":"LARGE","GP_ID":"229878014","LAUNCH_DATE":"2021-02-04","EPHEMERIS_TYPE":"0","RA_OF_ASC_NODE":"107.9411","PERIOD":"95.592","INCLINATION":"53.0530","ARG_OF_PERICENTER":"110.8704","TLE_LINE1":"1 47606U 21009BL  23100.72494067  .00005102  00000-0  36109-3 0  9990","ECCENTRICITY":"0.00010820","COUNTRY_CODE":"US","FILE":"3885363","ELEMENT_SET_NO":"999","MEAN_MOTION":"15.06405087","CLASSIFICATION_TYPE":"U","EPOCH":"2023-04-10T17:23:54.873888","MEAN_MOTION_DOT":"0.00005102","OBJECT_ID":"2021-009BL","DECAY_DATE":null,"REV_AT_EPOCH":"12057","OBJECT_NAME":"STARLINK-2024","MEAN_MOTION_DDOT":"0.0000000000000","TIME_SYSTEM":"UTC","CENTER_NAME":"EARTH","TLE_LINE2":"2 47606  53.0530 107.9411 0001082 110.8704 249.2400 15.06405087120578","BSTAR":"0.00036109000000","APOAPSIS":"547.947","MEAN_ANOMALY":"249.2400","PERIAPSIS":"546.449","MEAN_ELEMENT_THEORY":"SGP4"},{"MEAN_MOTION_DOT":"0.00016352","OBJECT_NAME":"STARLINK-2025","REV_AT_EPOCH":"12050","OBJECT_ID":"2021-009BM","DECAY_DATE":null,"MEAN_MOTION":"15.06444338","ELEMENT_SET_NO":"999","EPOCH":"2023-04-10T07:18:47.896992","CLASSIFICATION_TYPE":"U","MEAN_ANOMALY":"266.7695","PERIAPSIS":"546.078","APOAPSIS":"548.078","BSTAR":"0.00111280000000","MEAN_ELEMENT_THEORY":"SGP4","MEAN_MOTION_DDOT":"0.0000000000000","CENTER_NAME":"EARTH","TIME_SYSTEM":"UTC","TLE_LINE2":"2 47607  53.0539 109.8437 0001444  93.3459 266.7695 15.06444338120506","LAUNCH_DATE":"2021-02-04","RA_OF_ASC_NODE":"109.8437","EPHEMERIS_TYPE":"0","REF_FRAME":"TEME","NORAD_CAT_ID":"47607","GP_ID":"229848055","RCS_SIZE":"LARGE","SEMIMAJOR_AXIS":"6925.213","SITE":"AFETR","OBJECT_TYPE":"PAYLOAD","FILE":"3885195","INCLINATION":"53.0539","PERIOD":"95.589","COUNTRY_CODE":"US","TLE_LINE1":"1 47607U 21009BM  23100.30472103  .00016352  00000-0  11128-2 0  9994","ECCENTRICITY":"0.00014440","ARG_OF_PERICENTER":"93.3459"},{"MEAN_MOTION_DDOT":"0.0000000000000","TIME_SYSTEM":"UTC","CENTER_NAME":"EARTH","TLE_LINE2":"2 47620  53.0513 168.2633 0001695  87.4209 272.6974 15.06415889119609","BSTAR":"0.00214790000000","APOAPSIS":"548.339","PERIAPSIS":"545.991","MEAN_ANOMALY":"272.6974","MEAN_ELEMENT_THEORY":"SGP4","ELEMENT_SET_NO":"999","MEAN_MOTION":"15.06415889","CLASSIFICATION_TYPE":"U","EPOCH":"2023-04-10T15:40:26.719392","MEAN_MOTION_DOT":"0.00031871","DECAY_DATE":null,"OBJECT_ID":"2021-012A","REV_AT_EPOCH":"11960","OBJECT_NAME":"STARLINK-1528","PERIOD":"95.591","INCLINATION":"53.0513","ARG_OF_PERICENTER":"87.4209","ECCENTRICITY":"0.00016950","TLE_LINE1":"1 47620U 21012A   23100.65308703  .00031871  00000-0  21479-2 0  9998","COUNTRY_CODE":"US","FILE":"3885363","NORAD_CAT_ID":"47620","REF_FRAME":"TEME","OBJECT_TYPE":"PAYLOAD","SITE":"AFETR","RCS_SIZE":"LARGE","SEMIMAJOR_AXIS":"6925.300","GP_ID":"229877768","LAUNCH_DATE":"2021-02-16","EPHEMERIS_TYPE":"0","RA_OF_ASC_NODE":"168.2633"},{"MEAN_MOTION":"15.06436990","ELEMENT_SET_NO":"999","CLASSIFICATION_TYPE":"U","EPOCH":"2023-04-10T21:51:57.715488","MEAN_MOTION_DOT":"0.00017179","OBJECT_ID":"2021-012B","DECAY_DATE":null,"OBJECT_NAME":"STARLINK-1609","REV_AT_EPOCH":"11965","TIME_SYSTEM":"UTC","MEAN_MOTION_DDOT":"0.0000000000000","CENTER_NAME":"EARTH","TLE_LINE2":"2 47621  53.0536 167.1081 0001707  79.4710 280.6471 15.06436990119654","APOAPSIS":"548.282","BSTAR":"0.00116820000000","MEAN_ANOMALY":"280.6471","PERIAPSIS":"545.918","MEAN_ELEMENT_THEORY":"SGP4","NORAD_CAT_ID":"47621","REF_FRAME":"TEME","SEMIMAJOR_AXIS":"6925.235","RCS_SIZE":"LARGE","OBJECT_TYPE":"PAYLOAD","SITE":"AFETR","GP_ID":"229878015","LAUNCH_DATE":"2021-02-16","RA_OF_ASC_NODE":"167.1081","EPHEMERIS_TYPE":"0","PERIOD":"95.590","INCLINATION":"53.0536","TLE_LINE1":"1 47621U 21012B   23100.91108467  .00017179  00000-0  11682-2 0  9993","ECCENTRICITY":"0.00017070","ARG_OF_PERICENTER":"79.4710","COUNTRY_CODE":"US","FILE":"3885363"}];
